{
  "type": "FeatureCollection",
  "features": [
    {
      "type": "Feature",
      "properties": {
        "norad_id": 32376,
        "name": "COSMO-SKYMED 2",
        "group": "resource",
        "lat": -81.45925713316952,
        "lon": -113.95927307606729,
        "alt_km": 630.7859367946867,
        "timestamp": "2025-12-23T14:49:08.986070+00:00",
        "meta_object_name": "COSMO-SKYMED 2",
        "meta_object_id": "2007-059A",
        "meta_epoch": "2025-12-23T07:06:31.381056",
        "meta_mean_motion": 14.82154959,
        "meta_eccentricity": 0.00013148,
        "meta_inclination": 97.8805,
        "meta_ra_of_asc_node": 178.461,
        "meta_arg_of_pericenter": 82.6947,
        "meta_mean_anomaly": 277.4415,
        "meta_ephemeris_type": 0,
        "meta_classification_type": "U",
        "meta_norad_cat_id": 32376,
        "meta_element_set_no": 999,
        "meta_rev_at_epoch": 97594,
        "meta_bstar": 7.159144e-05,
        "meta_mean_motion_dot": 5.18e-06,
        "meta_mean_motion_ddot": 0,
        "tle_line1": "1 32376U 07059A   25357.29619654  .00000518  00000+0  71591-4 0  9996",
        "tle_line2": "2 32376  97.8805 178.4610 0001314  82.6947 277.4415 14.82154959975944"
      },
      "geometry": {
        "type": "Point",
        "coordinates": [
          -113.95927307606729,
          -81.45925713316952
        ]
      }
    },
    {
      "type": "Feature",
      "properties": {
        "norad_id": 32382,
        "name": "RADARSAT-2",
        "group": "resource",
        "lat": -17.199053627004233,
        "lon": 4.727436466303514,
        "alt_km": 796.8074844271796,
        "timestamp": "2025-12-23T14:49:08.986082+00:00",
        "meta_object_name": "RADARSAT-2",
        "meta_object_id": "2007-061A",
        "meta_epoch": "2025-12-23T06:30:13.872960",
        "meta_mean_motion": 14.29985581,
        "meta_eccentricity": 0.00011325,
        "meta_inclination": 98.5791,
        "meta_ra_of_asc_node": 1.7078,
        "meta_arg_of_pericenter": 84.5857,
        "meta_mean_anomaly": 275.5455,
        "meta_ephemeris_type": 0,
        "meta_classification_type": "U",
        "meta_norad_cat_id": 32382,
        "meta_element_set_no": 999,
        "meta_rev_at_epoch": 94081,
        "meta_bstar": 0.00016597604,
        "meta_mean_motion_dot": 3.84e-06,
        "meta_mean_motion_ddot": 0,
        "tle_line1": "1 32382U 07061A   25357.27099390  .00000384  00000+0  16598-3 0  9999",
        "tle_line2": "2 32382  98.5791   1.7078 0001132  84.5857 275.5455 14.29985581940813"
      },
      "geometry": {
        "type": "Point",
        "coordinates": [
          4.727436466303514,
          -17.199053627004233
        ]
      }
    },
    {
      "type": "Feature",
      "properties": {
        "norad_id": 32783,
        "name": "CARTOSAT-2A",
        "group": "resource",
        "lat": -71.00628553842411,
        "lon": 70.54055534225344,
        "alt_km": 634.0948492927419,
        "timestamp": "2025-12-23T14:49:08.986095+00:00",
        "meta_object_name": "CARTOSAT-2A",
        "meta_object_id": "2008-021A",
        "meta_epoch": "2025-12-23T07:01:39.400896",
        "meta_mean_motion": 14.78948446,
        "meta_eccentricity": 0.00111058,
        "meta_inclination": 97.7913,
        "meta_ra_of_asc_node": 46.7862,
        "meta_arg_of_pericenter": 329.8303,
        "meta_mean_anomaly": 30.2268,
        "meta_ephemeris_type": 0,
        "meta_classification_type": "U",
        "meta_norad_cat_id": 32783,
        "meta_element_set_no": 999,
        "meta_rev_at_epoch": 95280,
        "meta_bstar": -6.2791078e-05,
        "meta_mean_motion_dot": -5.14e-06,
        "meta_mean_motion_ddot": 0,
        "tle_line1": "1 32783U 08021A   25357.29281714 -.00000514  00000+0 -62791-4 0  9990",
        "tle_line2": "2 32783  97.7913  46.7862 0011105 329.8303  30.2268 14.78948446952800"
      },
      "geometry": {
        "type": "Point",
        "coordinates": [
          70.54055534225344,
          -71.00628553842411
        ]
      }
    },
    {
      "type": "Feature",
      "properties": {
        "norad_id": 33320,
        "name": "HUANJING 1A (HJ-1A)",
        "group": "resource",
        "lat": -32.51032195994606,
        "lon": -9.62121758531597,
        "alt_km": 613.2521364606573,
        "timestamp": "2025-12-23T14:49:08.986107+00:00",
        "meta_object_name": "HUANJING 1A (HJ-1A)",
        "meta_object_id": "2008-041A",
        "meta_epoch": "2025-12-23T06:52:19.299072",
        "meta_mean_motion": 14.83426962,
        "meta_eccentricity": 0.00193784,
        "meta_inclination": 97.6543,
        "meta_ra_of_asc_node": 345.1446,
        "meta_arg_of_pericenter": 1.0541,
        "meta_mean_anomaly": 359.0711,
        "meta_ephemeris_type": 0,
        "meta_classification_type": "U",
        "meta_norad_cat_id": 33320,
        "meta_element_set_no": 999,
        "meta_rev_at_epoch": 93232,
        "meta_bstar": 0.00022618692,
        "meta_mean_motion_dot": 1.812e-05,
        "meta_mean_motion_ddot": 0,
        "tle_line1": "1 33320U 08041A   25357.28633448  .00001812  00000+0  22619-3 0  9998",
        "tle_line2": "2 33320  97.6543 345.1446 0019378   1.0541 359.0711 14.83426962932323"
      },
      "geometry": {
        "type": "Point",
        "coordinates": [
          -9.62121758531597,
          -32.51032195994606
        ]
      }
    },
    {
      "type": "Feature",
      "properties": {
        "norad_id": 33321,
        "name": "HUANJING 1B (HJ-1B)",
        "group": "resource",
        "lat": 13.462728702326192,
        "lon": 170.97163385487775,
        "alt_km": 636.6445396827539,
        "timestamp": "2025-12-23T14:49:08.986120+00:00",
        "meta_object_name": "HUANJING 1B (HJ-1B)",
        "meta_object_id": "2008-041B",
        "meta_epoch": "2025-12-23T05:58:37.133760",
        "meta_mean_motion": 14.82846017,
        "meta_eccentricity": 0.00378657,
        "meta_inclination": 97.64,
        "meta_ra_of_asc_node": 348.7781,
        "meta_arg_of_pericenter": 42.4143,
        "meta_mean_anomaly": 317.9987,
        "meta_ephemeris_type": 0,
        "meta_classification_type": "U",
        "meta_norad_cat_id": 33321,
        "meta_element_set_no": 999,
        "meta_rev_at_epoch": 93233,
        "meta_bstar": 0.00012646339,
        "meta_mean_motion_dot": 9.85e-06,
        "meta_mean_motion_ddot": 0,
        "tle_line1": "1 33321U 08041B   25357.24904090  .00000985  00000+0  12646-3 0  9998",
        "tle_line2": "2 33321  97.6400 348.7781 0037865  42.4143 317.9987 14.82846017932330"
      },
      "geometry": {
        "type": "Point",
        "coordinates": [
          170.97163385487775,
          13.462728702326192
        ]
      }
    },
    {
      "type": "Feature",
      "properties": {
        "norad_id": 33331,
        "name": "GEOEYE 1",
        "group": "resource",
        "lat": 15.141689127464758,
        "lon": -109.02426663802102,
        "alt_km": 678.2317135490257,
        "timestamp": "2025-12-23T14:49:08.986132+00:00",
        "meta_object_name": "GEOEYE 1",
        "meta_object_id": "2008-042A",
        "meta_epoch": "2025-12-23T04:13:57.785664",
        "meta_mean_motion": 14.64713746,
        "meta_eccentricity": 0.00029135,
        "meta_inclination": 98.1239,
        "meta_ra_of_asc_node": 68.3251,
        "meta_arg_of_pericenter": 239.3644,
        "meta_mean_anomaly": 120.7272,
        "meta_ephemeris_type": 0,
        "meta_classification_type": "U",
        "meta_norad_cat_id": 33331,
        "meta_element_set_no": 999,
        "meta_rev_at_epoch": 92438,
        "meta_bstar": 0.00011627381,
        "meta_mean_motion_dot": 5.71e-06,
        "meta_mean_motion_ddot": 0,
        "tle_line1": "1 33331U 08042A   25357.17636326  .00000571  00000+0  11627-3 0  9995",
        "tle_line2": "2 33331  98.1239  68.3251 0002913 239.3644 120.7272 14.64713746924388"
      },
      "geometry": {
        "type": "Point",
        "coordinates": [
          -109.02426663802102,
          15.141689127464758
        ]
      }
    },
    {
      "type": "Feature",
      "properties": {
        "norad_id": 33396,
        "name": "THEOS",
        "group": "resource",
        "lat": 73.90417349971773,
        "lon": 23.816814498072414,
        "alt_km": 817.0846168907347,
        "timestamp": "2025-12-23T14:49:08.986144+00:00",
        "meta_object_name": "THEOS",
        "meta_object_id": "2008-049A",
        "meta_epoch": "2025-12-23T07:41:49.764768",
        "meta_mean_motion": 14.20098022,
        "meta_eccentricity": 0.00012271,
        "meta_inclination": 98.5851,
        "meta_ra_of_asc_node": 55.0978,
        "meta_arg_of_pericenter": 93.2912,
        "meta_mean_anomaly": 266.8405,
        "meta_ephemeris_type": 0,
        "meta_classification_type": "U",
        "meta_norad_cat_id": 33396,
        "meta_element_set_no": 999,
        "meta_rev_at_epoch": 89300,
        "meta_bstar": -1.406822e-06,
        "meta_mean_motion_dot": -4.6e-07,
        "meta_mean_motion_ddot": 0,
        "tle_line1": "1 33396U 08049A   25357.32071487 -.00000046  00000+0 -14068-5 0  9994",
        "tle_line2": "2 33396  98.5851  55.0978 0001227  93.2912 266.8405 14.20098022893003"
      },
      "geometry": {
        "type": "Point",
        "coordinates": [
          23.816814498072414,
          73.90417349971773
        ]
      }
    }
  ]
}